{
  "norad_id": 62988,
  "name": "STARLINK-11542 [DTC]",
  "history": [
    {
      "epoch": "2026-03-28T19:36:29.693376Z",
      "apogee_km": 356.7163883301837,
      "perigee_km": 355.23825023710015,
      "latitude_deg": 4.665599401112784e-07,
      "longitude_deg": 125.53936006619293,
      "height_km": 355.52075155412587,
      "semi_major_axis_km": 6734.114319283642,
      "eccentricity": 0.00010975,
      "inclination_deg": 42.9989,
      "raan_deg": 245.8951,
      "arg_perigee_deg": 288.0176,
      "mean_anomaly_deg": 72.0572,
      "mean_motion_rev_day": 15.71021161
    },
    {
      "epoch": "2026-03-29T03:14:18.659616Z",
      "apogee_km": 358.0348005209444,
      "perigee_km": 354.68519640384784,
      "latitude_deg": 5.6486251025867527e-05,
      "longitude_deg": 8.85572981228068,
      "height_km": 355.13861107418694,
      "semi_major_axis_km": 6734.496998462396,
      "eccentricity": 0.00024869,
      "inclination_deg": 42.9996,
      "raan_deg": 243.9788,
      "arg_perigee_deg": 53.7508,
      "mean_anomaly_deg": 306.359,
      "mean_motion_rev_day": 15.70887256
    },
    {
      "epoch": "2026-03-30T14:20:10.414464Z",
      "apogee_km": 359.1359420853405,
      "perigee_km": 353.8271769672374,
      "latitude_deg": 3.6784221004693745e-05,
      "longitude_deg": -167.8666469867366,
      "height_km": 354.73216870780055,
      "semi_major_axis_km": 6734.618559526289,
      "eccentricity": 0.00039414,
      "inclination_deg": 43.0005,
      "raan_deg": 235.1635,
      "arg_perigee_deg": 305.0242,
      "mean_anomaly_deg": 55.0256,
      "mean_motion_rev_day": 15.70844724
    },
    {
      "epoch": "2026-03-31T16:16:41.238048Z",
      "apogee_km": 358.19605638203484,
      "perigee_km": 354.25780035672415,
      "latitude_deg": 3.635945703057618e-05,
      "longitude_deg": 155.4233265900872,
      "height_km": 356.2084201365197,
      "semi_major_axis_km": 6734.363928369379,
      "eccentricity": 0.0002924,
      "inclination_deg": 43.0,
      "raan_deg": 228.6473,
      "arg_perigee_deg": 263.9369,
      "mean_anomaly_deg": 96.1166,
      "mean_motion_rev_day": 15.70933817
    },
    {
      "epoch": "2026-04-01T15:10:04.831968Z",
      "apogee_km": 356.6014722549453,
      "perigee_km": 356.1871638882576,
      "latitude_deg": 3.537908884532427e-05,
      "longitude_deg": 165.38636451210053,
      "height_km": 356.23647386082916,
      "semi_major_axis_km": 6734.531318071601,
      "eccentricity": 3.076e-05,
      "inclination_deg": 42.9997,
      "raan_deg": 222.8987,
      "arg_perigee_deg": 250.0244,
      "mean_anomaly_deg": 110.0591,
      "mean_motion_rev_day": 15.70875248
    },
    {
      "epoch": "2026-04-03T14:28:25.122720Z",
      "apogee_km": 358.054336788432,
      "perigee_km": 354.8944571209804,
      "latitude_deg": -3.0508231672048966e-05,
      "longitude_deg": 161.97807711078693,
      "height_km": 356.82429479973126,
      "semi_major_axis_km": 6734.611396954706,
      "eccentricity": 0.0002346,
      "inclination_deg": 43.0012,
      "raan_deg": 211.0178,
      "arg_perigee_deg": 248.5882,
      "mean_anomaly_deg": 111.4735,
      "mean_motion_rev_day": 15.7084723
    },
    {
      "epoch": "2026-04-04T16:24:56.488032Z",
      "apogee_km": 357.93007196589497,
      "perigee_km": 354.4982466151214,
      "latitude_deg": 2.9246253527369953e-06,
      "longitude_deg": 125.26792131173073,
      "height_km": 355.35768942002136,
      "semi_major_axis_km": 6734.351159290508,
      "eccentricity": 0.0002548,
      "inclination_deg": 43.0024,
      "raan_deg": 204.5037,
      "arg_perigee_deg": 291.5406,
      "mean_anomaly_deg": 68.519,
      "mean_motion_rev_day": 15.70938285
    },
    {
      "epoch": "2026-04-05T13:46:48.972288Z",
      "apogee_km": 357.6376025800755,
      "perigee_km": 355.2670271412453,
      "latitude_deg": -4.765828908761208e-06,
      "longitude_deg": 158.55461530207617,
      "height_km": 356.39672712929155,
      "semi_major_axis_km": 6734.58931486066,
      "eccentricity": 0.000176,
      "inclination_deg": 42.9996,
      "raan_deg": 199.1365,
      "arg_perigee_deg": 261.6679,
      "mean_anomaly_deg": 98.3989,
      "mean_motion_rev_day": 15.70854956
    },
    {
      "epoch": "2026-04-06T06:33:56.975904Z",
      "apogee_km": 358.99369186273907,
      "perigee_km": 352.9110582938056,
      "latitude_deg": -2.4145385511431958e-05,
      "longitude_deg": -98.13201351763578,
      "height_km": 354.71630748948894,
      "semi_major_axis_km": 6734.0893750782725,
      "eccentricity": 0.00045163,
      "inclination_deg": 42.9996,
      "raan_deg": 194.9226,
      "arg_perigee_deg": 289.4044,
      "mean_anomaly_deg": 70.6335,
      "mean_motion_rev_day": 15.7102989
    },
    {
      "epoch": "2026-04-07T13:05:08.440512Z",
      "apogee_km": 357.4857645830916,
      "perigee_km": 355.5100920805162,
      "latitude_deg": -2.6398630481196355e-05,
      "longitude_deg": 155.150505724648,
      "height_km": 356.01035900310984,
      "semi_major_axis_km": 6734.634928331803,
      "eccentricity": 0.00014668,
      "inclination_deg": 43.0001,
      "raan_deg": 187.2563,
      "arg_perigee_deg": 285.265,
      "mean_anomaly_deg": 74.8055,
      "mean_motion_rev_day": 15.70838997
    },
    {
      "epoch": "2026-04-08T11:58:32.207232Z",
      "apogee_km": 357.1463786714521,
      "perigee_km": 355.7438346019244,
      "latitude_deg": -2.707475077387511e-06,
      "longitude_deg": 165.11274387814927,
      "height_km": 356.1380849623132,
      "semi_major_axis_km": 6734.582106636688,
      "eccentricity": 0.00010413,
      "inclination_deg": 43.0012,
      "raan_deg": 181.5076,
      "arg_perigee_deg": 276.4931,
      "mean_anomaly_deg": 83.5818,
      "mean_motion_rev_day": 15.70857478
    },
    {
      "epoch": "2026-04-09T06:17:15.275904Z",
      "apogee_km": 357.4718361472678,
      "perigee_km": 355.2112063972472,
      "latitude_deg": -3.550217047231028e-05,
      "longitude_deg": -114.91839181845356,
      "height_km": 355.98631193227334,
      "semi_major_axis_km": 6734.478521272257,
      "eccentricity": 0.00016784,
      "inclination_deg": 43.0016,
      "raan_deg": 176.908,
      "arg_perigee_deg": 276.506,
      "mean_anomaly_deg": 83.5616,
      "mean_motion_rev_day": 15.70893721
    },
    {
      "epoch": "2026-04-10T05:10:38.858592Z",
      "apogee_km": 357.0821480923187,
      "perigee_km": 354.6614066170341,
      "latitude_deg": 4.4691509236069426e-05,
      "longitude_deg": -104.95422430535304,
      "height_km": 356.29687152345673,
      "semi_major_axis_km": 6734.008777354676,
      "eccentricity": 0.00017974,
      "inclination_deg": 43.0011,
      "raan_deg": 171.1604,
      "arg_perigee_deg": 237.3754,
      "mean_anomaly_deg": 122.6941,
      "mean_motion_rev_day": 15.71058095
    },
    {
      "epoch": "2026-04-11T14:44:57.852672Z",
      "apogee_km": 357.28229517735144,
      "perigee_km": 355.5205399273191,
      "latitude_deg": -8.358772118901342e-06,
      "longitude_deg": 101.65532360018405,
      "height_km": 356.2372277170398,
      "semi_major_axis_km": 6734.538417552335,
      "eccentricity": 0.0001308,
      "inclination_deg": 43.0003,
      "raan_deg": 162.7279,
      "arg_perigee_deg": 265.8713,
      "mean_anomaly_deg": 94.2005,
      "mean_motion_rev_day": 15.70872764
    },
    {
      "epoch": "2026-04-12T12:06:47.922912Z",
      "apogee_km": 358.71444728894403,
      "perigee_km": 353.40830302122504,
      "latitude_deg": -2.2218393132575647e-05,
      "longitude_deg": 134.9531974224889,
      "height_km": 355.645381995479,
      "semi_major_axis_km": 6734.198375155084,
      "eccentricity": 0.00039397,
      "inclination_deg": 43.0004,
      "raan_deg": 157.3618,
      "arg_perigee_deg": 274.1105,
      "mean_anomaly_deg": 85.9312,
      "mean_motion_rev_day": 15.70991747
    },
    {
      "epoch": "2026-04-14T12:56:42.908928Z",
      "apogee_km": 357.44751787822315,
      "perigee_km": 355.45273317164265,
      "latitude_deg": 1.253191892884135e-06,
      "longitude_deg": 108.20535866344783,
      "height_km": 356.2527032749367,
      "semi_major_axis_km": 6734.587125524932,
      "eccentricity": 0.0001481,
      "inclination_deg": 43.0009,
      "raan_deg": 145.0985,
      "arg_perigee_deg": 268.2782,
      "mean_anomaly_deg": 91.7916,
      "mean_motion_rev_day": 15.70855722
    },
    {
      "epoch": "2026-04-15T19:27:56.164608Z",
      "apogee_km": 357.3311809548786,
      "perigee_km": 354.4584429838933,
      "latitude_deg": -2.317035869675354e-05,
      "longitude_deg": 1.480076751222594,
      "height_km": 355.0865261668176,
      "semi_major_axis_km": 6734.031811969386,
      "eccentricity": 0.0002133,
      "inclination_deg": 42.9996,
      "raan_deg": 137.4319,
      "arg_perigee_deg": 66.3059,
      "mean_anomaly_deg": 293.8032,
      "mean_motion_rev_day": 15.71050034
    },
    {
      "epoch": "2026-04-16T18:21:19.325664Z",
      "apogee_km": 357.50362460634824,
      "perigee_km": 355.3552979052065,
      "latitude_deg": -2.7426340031722812e-05,
      "longitude_deg": 11.445020309772595,
      "height_km": 355.4502483957429,
      "semi_major_axis_km": 6734.566461255777,
      "eccentricity": 0.0001595,
      "inclination_deg": 42.9982,
      "raan_deg": 131.6834,
      "arg_perigee_deg": 45.789,
      "mean_anomaly_deg": 314.3108,
      "mean_motion_rev_day": 15.70862952
    }
  ]
}